{"type": "FeatureCollection", "features": [ {"type": "Feature", "properties": {"norad_id": 45358, "name": "COSMOS 2545 (760)", "group": "glo-ops", "lat": 63.07022274801825, "lon": 68.41009725598897, "alt_km": 19148.45826989739, "timestamp": "2025-12-24T18:55:56.329440+00:00", "meta": {"OBJECT_NAME": "COSMOS 2545 (760)", "OBJECT_ID": "2020-018A", "EPOCH": "2025-12-23T06:02:53.477376", "MEAN_MOTION": 2.13102687, "ECCENTRICITY": 0.00113235, "INCLINATION": 64.4634, "RA_OF_ASC_NODE": 318.6014, "ARG_OF_PERICENTER": 250.5824, "MEAN_ANOMALY": 109.2939, "EPHEMERIS_TYPE": 0, "CLASSIFICATION_TYPE": "U", "NORAD_CAT_ID": 45358, "ELEMENT_SET_NO": 999, "REV_AT_EPOCH": 4491, "BSTAR": 0, "MEAN_MOTION_DOT": -3.7e-07, "MEAN_MOTION_DDOT": 0}, "tle": {"line1": "1 45358U 20018A   25357.25200784 -.00000037  00000+0  00000+0 0  9995", "line2": "2 45358  64.4634 318.6014 0011323 250.5824 109.2939  2.13102687 44914"}}, "geometry": {"type": "Point", "coordinates": [68.41009725598897, 63.07022274801825]}}, {"type": "Feature", "properties": {"norad_id": 46805, "name": "COSMOS 2547 (705K)", "group": "glo-ops", "lat": -39.953697913036834, "lon": 174.8269829973381, "alt_km": 19134.235532088478, "timestamp": "2025-12-24T18:55:56.329451+00:00", "meta": {"OBJECT_NAME": "COSMOS 2547 (705K)", "OBJECT_ID": "2020-075A", "EPOCH": "2025-12-22T23:18:06.838272", "MEAN_MOTION": 2.13100223, "ECCENTRICITY": 0.00061117, "INCLINATION": 64.5968, "RA_OF_ASC_NODE": 198.3547, "ARG_OF_PERICENTER": 227.5721, "MEAN_ANOMALY": 132.44, "EPHEMERIS_TYPE": 0, "CLASSIFICATION_TYPE": "U", "NORAD_CAT_ID": 46805, "ELEMENT_SET_NO": 999, "REV_AT_EPOCH": 4015, "BSTAR": 0, "MEAN_MOTION_DOT": 9.5e-07, "MEAN_MOTION_DDOT": 0}, "tle": {"line1": "1 46805U 20075A   25356.97091248  .00000095  00000+0  00000+0 0  9990", "line2": "2 46805  64.5968 198.3547 0006111 227.5721 132.4400  2.13100223 40153"}}, "geometry": {"type": "Point", "coordinates": [174.8269829973381, -39.953697913036834]}}, {"type": "Feature", "properties": {"norad_id": 52984, "name": "COSMOS 2557 (706K)", "group": "glo-ops", "lat": -6.895057264852549, "lon": 143.93363863336577, "alt_km": 19131.817891908555, "timestamp": "2025-12-24T18:55:56.329462+00:00", "meta": {"OBJECT_NAME": "COSMOS 2557 (706K)", "OBJECT_ID": "2022-075A", "EPOCH": "2025-12-24T01:47:30.472800", "MEAN_MOTION": 2.13102037, "ECCENTRICITY": 0.00135405, "INCLINATION": 64.4034, "RA_OF_ASC_NODE": 320.6533, "ARG_OF_PERICENTER": 278.4608, "MEAN_ANOMALY": 81.3862, "EPHEMERIS_TYPE": 0, "CLASSIFICATION_TYPE": "U", "NORAD_CAT_ID": 52984, "ELEMENT_SET_NO": 999, "REV_AT_EPOCH": 2698, "BSTAR": 0, "MEAN_MOTION_DOT": -3.6e-07, "MEAN_MOTION_DDOT": 0}, "tle": {"line1": "1 52984U 22075A   25358.07465825 -.00000036  00000+0  00000+0 0  9992", "line2": "2 52984  64.4034 320.6533 0013540 278.4608  81.3862  2.13102037 26983"}}, "geometry": {"type": "Point", "coordinates": [143.93363863336577, -6.895057264852549]}}, {"type": "Feature", "properties": {"norad_id": 54031, "name": "COSMOS 2559 (707K)", "group": "glo-ops", "lat": -29.703918711708585, "lon": -55.17744312927202, "alt_km": 19154.729522215483, "timestamp": "2025-12-24T18:55:56.329473+00:00", "meta": {"OBJECT_NAME": "COSMOS 2559 (707K)", "OBJECT_ID": "2022-130A", "EPOCH": "2025-12-22T22:55:41.357856", "MEAN_MOTION": 2.13101293, "ECCENTRICITY": 0.00115202, "INCLINATION": 64.3764, "RA_OF_ASC_NODE": 320.7818, "ARG_OF_PERICENTER": 191.7582, "MEAN_ANOMALY": 168.2129, "EPHEMERIS_TYPE": 0, "CLASSIFICATION_TYPE": "U", "NORAD_CAT_ID": 54031, "ELEMENT_SET_NO": 999, "REV_AT_EPOCH": 2493, "BSTAR": 0, "MEAN_MOTION_DOT": -4e-07, "MEAN_MOTION_DDOT": 0}, "tle": {"line1": "1 54031U 22130A   25356.95533979 -.00000040  00000+0  00000+0 0  9995", "line2": "2 54031  64.3764 320.7818 0011520 191.7582 168.2129  2.13101293 24935"}}, "geometry": {"type": "Point", "coordinates": [-55.17744312927202, -29.703918711708585]}}, {"type": "Feature", "properties": {"norad_id": 54377, "name": "COSMOS 2564 (761)", "group": "glo-ops", "lat": 64.43157056356944, "lon": -80.60771818928697, "alt_km": 19133.101635290182, "timestamp": "2025-12-24T18:55:56.329484+00:00", "meta": {"OBJECT_NAME": "COSMOS 2564 (761)", "OBJECT_ID": "2022-161A", "EPOCH": "2025-12-22T19:11:15.319968", "MEAN_MOTION": 2.13102038, "ECCENTRICITY": 0.00085475, "INCLINATION": 64.7388, "RA_OF_ASC_NODE": 198.5646, "ARG_OF_PERICENTER": 203.7096, "MEAN_ANOMALY": 156.316, "EPHEMERIS_TYPE": 0, "CLASSIFICATION_TYPE": "U", "NORAD_CAT_ID": 54377, "ELEMENT_SET_NO": 999, "REV_AT_EPOCH": 2387, "BSTAR": 0, "MEAN_MOTION_DOT": 9.5e-07, "MEAN_MOTION_DDOT": 0}, "tle": {"line1": "1 54377U 22161A   25356.79948287  .00000095  00000+0  00000+0 0  9995", "line2": "2 54377  64.7388 198.5646 0008547 203.7096 156.3160  2.13102038 23876"}}, "geometry": {"type": "Point", "coordinates": [-80.60771818928697, 64.43157056356944]}}, {"type": "Feature", "properties": {"norad_id": 57517, "name": "COSMOS 2569 (703K)", "group": "glo-ops", "lat": 61.71427607472315, "lon": 137.60163675613114, "alt_km": 19146.88637828301, "timestamp": "2025-12-24T18:55:56.329495+00:00", "meta": {"OBJECT_NAME": "COSMOS 2569 (703K)", "OBJECT_ID": "2023-114A", "EPOCH": "2025-12-23T18:01:56.220096", "MEAN_MOTION": 2.13103974, "ECCENTRICITY": 0.00109355, "INCLINATION": 65.1997, "RA_OF_ASC_NODE": 78.5414, "ARG_OF_PERICENTER": 287.1018, "MEAN_ANOMALY": 72.827, "EPHEMERIS_TYPE": 0, "CLASSIFICATION_TYPE": "U", "NORAD_CAT_ID": 57517, "ELEMENT_SET_NO": 999, "REV_AT_EPOCH": 1852, "BSTAR": 0, "MEAN_MOTION_DOT": 1e-08, "MEAN_MOTION_DDOT": 0}, "tle": {"line1": "1 57517U 23114A   25357.75134514  .00000001  00000+0  00000+0 0  9997", "line2": "2 57517  65.1997  78.5414 0010935 287.1018  72.8270  2.13103974 18520"}}, "geometry": {"type": "Point", "coordinates": [137.60163675613114, 61.71427607472315]}}, {"type": "Feature", "properties": {"norad_id": 63130, "name": "COSMOS 2584 (704K)", "group": "glo-ops", "lat": 15.516734539179643, "lon": -108.68964730828779, "alt_km": 19117.665056699767, "timestamp": "2025-12-24T18:55:56.329506+00:00", "meta": {"OBJECT_NAME": "COSMOS 2584 (704K)", "OBJECT_ID": "2025-042A", "EPOCH": "2025-12-23T15:18:41.586912", "MEAN_MOTION": 2.13102998, "ECCENTRICITY": 0.00077597, "INCLINATION": 64.9817, "RA_OF_ASC_NODE": 78.7748, "ARG_OF_PERICENTER": 220.3621, "MEAN_ANOMALY": 139.628, "EPHEMERIS_TYPE": 0, "CLASSIFICATION_TYPE": "U", "NORAD_CAT_ID": 63130, "ELEMENT_SET_NO": 999, "REV_AT_EPOCH": 630, "BSTAR": 0, "MEAN_MOTION_DOT": 1e-08, "MEAN_MOTION_DDOT": 0}, "tle": {"line1": "1 63130U 25042A   25357.63798133  .00000001  00000+0  00000+0 0  9997", "line2": "2 63130  64.9817  78.7748 0007759 220.3621 139.6280  2.13102998  6308"}}, "geometry": {"type": "Point", "coordinates": [-108.68964730828779, 15.516734539179643]}}, {"type": "Feature", "properties": {"norad_id": 65590, "name": "COSMOS 2596 (708K)", "group": "glo-ops", "lat": -62.51362661972862, "lon": -104.04900382212875, "alt_km": 19104.25652638668, "timestamp": "2025-12-24T18:55:56.329517+00:00", "meta": {"OBJECT_NAME": "COSMOS 2596 (708K)", "OBJECT_ID": "2025-206B", "EPOCH": "2025-12-24T04:32:38.772960", "MEAN_MOTION": 2.13100301, "ECCENTRICITY": 0.00140894, "INCLINATION": 64.7381, "RA_OF_ASC_NODE": 321.0775, "ARG_OF_PERICENTER": 307.5412, "MEAN_ANOMALY": 233.8, "EPHEMERIS_TYPE": 0, "CLASSIFICATION_TYPE": "U", "NORAD_CAT_ID": 65590, "ELEMENT_SET_NO": 999, "REV_AT_EPOCH": 218, "BSTAR": 0, "MEAN_MOTION_DOT": -3.5e-07, "MEAN_MOTION_DDOT": 0}, "tle": {"line1": "1 65590U 25206B   25358.18933765 -.00000035  00000+0  00000+0 0  9992", "line2": "2 65590  64.7381 321.0775 0014089 307.5412 233.8000  2.13100301  2183"}}, "geometry": {"type": "Point", "coordinates": [-104.04900382212875, -62.51362661972862]}}]}